COSMOS 2425 (716)       
1 29670U 06062A   18184.03660434 -.00000019  00000-0  10000-3 0  9991
2 29670  65.2716 292.0007 0020173 347.5212   3.7575  2.13104967 89647
COSMOS 2426 (717)       
1 29671U 06062B   18183.60580872 -.00000018  00000-0  10000-3 0  9990
2 29671  65.2891 292.1142 0018961 164.0343  72.3827  2.13102911 89641
COSMOS 2433 (720)       
1 32275U 07052A   18184.41806394 -.00000041  00000-0  10000-3 0  9990
2 32275  65.6935  52.8180 0001498 302.3002 172.8860  2.13104374 83177
COSMOS 2432 (719)       
1 32276U 07052B   18183.77766903 -.00000042  00000-0  10000-3 0  9991
2 32276  65.7075  52.9156 0011636 341.9326 313.9077  2.13103853 83158
COSMOS 2434 (721)       
1 32393U 07065A   18184.45567936 -.00000019  00000-0  00000+0 0  9995
2 32393  64.8847 290.9537 0005103 118.7154 273.3554  2.13102949 81885
COSMOS 2436 (723)       
1 32395U 07065C   18183.51280683 -.00000018  00000-0  10000-3 0  9998
2 32395  64.8960 291.0368 0014222   3.5443  75.7598  2.13104356 81797
COSMOS 2456 (730)       
1 36111U 09070A   18183.67676307  .00000075  00000-0  00000-0 0  9993
2 36111  64.1880 170.5723 0006693 300.3455  26.4599  2.13102954 66521
COSMOS 2457 (733)       
1 36112U 09070B   18184.11474218  .00000079  00000-0  00000+0 0  9994
2 36112  64.1699 170.4675 0005732 196.4141 233.1941  2.13101556 66541
COSMOS 2458 (734)       
1 36113U 09070C   18184.05483296  .00000079  00000-0  10000-3 0  9999
2 36113  64.1752 170.4807 0003090 314.6809 116.4370  2.13096735 66540
COSMOS 2459 (731)       
1 36400U 10007A   18184.43393200 -.00000041  00000-0  10000-3 0  9997
2 36400  65.6044  51.8755 0027767 354.6297 351.5494  2.13102182 64894
COSMOS 2461 (735)       
1 36401U 10007B   18183.73147589 -.00000042  00000-0  10000-3 0  9998
2 36401  65.5945  51.8749 0008491  61.5856  16.2900  2.13102229 64883
COSMOS 2460 (732)       
1 36402U 10007C   18183.59115648 -.00000042  00000-0  10000-3 0  9994
2 36402  65.5864  51.8457 0001877  43.8732 326.9397  2.13101529 64880
COSMOS 2464 (736)       
1 37139U 10041C   18184.41944976 -.00000020  00000-0  00000+0 0  9997
2 37139  64.4895 290.7529 0022936  14.5049 217.5725  2.13102685 60968
COSMOS 2471 (701K)      
1 37372U 11009A   18183.77569449 -.00000042  00000-0  00000+0 0  9991
2 37372  65.5842  51.7860 0007000 233.2595  63.4128  2.13107430 57150
COSMOS 2474 (742)       
1 37829U 11055A   18183.57943752  .00000074  00000-0  00000-0 0  9995
2 37829  64.5115 171.2995 0011074 254.0596 216.1603  2.13101891 52520
COSMOS 2476 (744)       
1 37867U 11064A   18183.86288269  .00000078  00000-0  00000-0 0  9998
2 37867  64.4913 171.3515 0020650 245.7661 127.9530  2.13101960 51889
COSMOS 2477 (745)       
1 37868U 11064B   18183.54516336  .00000074  00000-0  00000+0 0  9998
2 37868  64.4997 171.4109 0018459 247.3672  61.4918  2.13101790 51823
COSMOS 2475 (743)       
1 37869U 11064C   18183.78146566  .00000077  00000-0  00000-0 0  9993
2 37869  64.5072 171.3975 0023154 268.6419 178.2256  2.13102101 51843
COSMOS 2485 (747)       
1 39155U 13019A   18183.48523185  .00000074  00000-0  00000-0 0  9995
2 39155  64.6606 171.4774 0020983 241.1457 247.7197  2.13101968 40349
COSMOS 2492 (754)       
1 39620U 14012A   18183.97475519 -.00000042  00000-0  10000-3 0  9997
2 39620  65.4761  51.7174 0014745 336.1956 203.0086  2.13103352 33308
COSMOS 2500 (755)       
1 40001U 14032A   18183.69449713 -.00000043  00000-0  00000+0 0  9996
2 40001  65.4173  51.6933 0004370 199.4852 346.9563  2.13102768 31518
COSMOS 2501 (702K)      
1 40315U 14075A   18183.54531432 -.00000020  00000-0  00000-0 0  9991
2 40315  64.2152 291.9908 0016061 204.6971  28.7551  2.13098630 27915
COSMOS 2514 (751)       
1 41330U 16008A   18183.75365016 -.00000043  00000-0  00000-0 0  9998
2 41330  65.2192  51.7421 0007582 215.1439 197.5898  2.13103187 18681
COSMOS 2516 (753)       
1 41554U 16032A   18183.67660090 -.00000019  00000-0  00000-0 0  9997
2 41554  64.4344 291.8547 0012452 212.8294  31.8834  2.13101621 16285
COSMOS 2522 (752)       
1 42939U 17055A   18184.11148631 -.00000020  00000-0  00000+0 0  9994
2 42939  64.6657 291.8111 0006998 237.6188 207.1487  2.13101791  6058
